IRIDIUM 36 [-]          
1 24967U 97056C   24084.85345889  .00002658  00000+0  89616-3 0  9996
2 24967  86.4030   1.6862 0002289  81.8245 278.3212 14.36701557387689
IRIDIUM 39 [-]          
1 25042U 97069D   24084.90221818  .00005438  00000+0  14628-2 0  9995
2 25042  86.3930  43.5999 0018729  13.1368 347.0319 14.47790692384182
IRIDIUM 38 [-]          
1 25043U 97069E   24084.95693932  .00002859  00000+0  95566-3 0  9996
2 25043  86.3931  62.0414 0003803 107.1589 253.0025 14.37139559381419
IRIDIUM 42 [-]          
1 25077U 97077A   24084.91034247  .00002793  00000+0  96599-3 0  9990
2 25077  86.3924  67.6848 0002653  99.7823 260.3673 14.35450527376726
IRIDIUM 44 [-]          
1 25078U 97077B   24084.95600025  .00002969  00000+0  95075-3 0  9991
2 25078  86.3952  50.7887 0004033  76.7730 283.3919 14.39276722379065
IRIDIUM 45 [-]          
1 25104U 97082A   24084.94349881  .00058400  00000+0  34471-2 0  9999
2 25104  86.3688 261.7214 0166738 184.9387 175.0211 15.00277259384210
IRIDIUM 24 [-]          
1 25105U 97082B   24084.93955275  .00002704  00000+0  83418-3 0  9991
2 25105  86.3852 270.5447 0013318 116.6759 243.5806 14.41042966378493
IRIDIUM 51 [-]          
1 25262U 98018A   24084.93683032  .00061037  00000+0  29942-2 0  9999
2 25262  86.3856 271.7919 0153761 132.1931 229.2481 15.08000534378703
